start=new Date('2022-05-15T00:00:00.000Z').valueOf();
sats=[{"GP_ID":"203566185","MEAN_ANOMALY":"159.7437","OBJECT_ID":"2022-041AK","RA_OF_ASC_NODE":"259.8235","OBJECT_NAME":"STARLINK-3777","ECCENTRICITY":"0.00024180","SEMIMAJOR_AXIS":"6727.497","ARG_OF_PERICENTER":"23.4588","PERIAPSIS":"347.736","RCS_SIZE":"LARGE","ELEMENT_SET_NO":"999","COUNTRY_CODE":"US","MEAN_MOTION_DDOT":"0.0000000000000","CENTER_NAME":"EARTH","APOAPSIS":"350.989","BSTAR":"-0.00407740000000","CLASSIFICATION_TYPE":"U","SITE":"AFETR","TIME_SYSTEM":"UTC","TLE_LINE2":"2 52294  53.2162 259.8235 0002418  23.4588 159.7437 15.73339505  1303","MEAN_ELEMENT_THEORY":"SGP4","TLE_LINE1":"1 52294U 22041AK  22134.91667824 -.00540943  00000-0 -40774-2 0  9997","MEAN_MOTION":"15.73339505","EPOCH":"2022-05-14T22:00:00.999936","LAUNCH_DATE":"2022-04-21","REV_AT_EPOCH":"130","MEAN_MOTION_DOT":"-0.00540943","OBJECT_TYPE":"PAYLOAD","PERIOD":"91.525","DECAY_DATE":null,"FILE":"3445938","INCLINATION":"53.2162","REF_FRAME":"TEME","EPHEMERIS_TYPE":"0","NORAD_CAT_ID":"52294"},{"PERIAPSIS":"347.716","RCS_SIZE":"LARGE","ARG_OF_PERICENTER":"17.2960","CLASSIFICATION_TYPE":"U","SITE":"AFETR","BSTAR":"-0.00036654000000","CENTER_NAME":"EARTH","APOAPSIS":"351.326","ELEMENT_SET_NO":"999","MEAN_MOTION_DDOT":"0.0000000000000","COUNTRY_CODE":"US","OBJECT_ID":"2022-041AL","MEAN_ANOMALY":"163.4986","GP_ID":"203566713","ECCENTRICITY":"0.00026830","SEMIMAJOR_AXIS":"6727.656","OBJECT_NAME":"STARLINK-3765","RA_OF_ASC_NODE":"259.8272","INCLINATION":"53.2147","FILE":"3445938","DECAY_DATE":null,"OBJECT_TYPE":"PAYLOAD","MEAN_MOTION_DOT":"-0.00051942","PERIOD":"91.528","EPHEMERIS_TYPE":"0","NORAD_CAT_ID":"52295","REF_FRAME":"TEME","TLE_LINE1":"1 52295U 22041AL  22134.91667824 -.00051942  00000-0 -36654-3 0  9997","MEAN_ELEMENT_THEORY":"SGP4","TLE_LINE2":"2 52295  53.2147 259.8272 0002683  17.2960 163.4986 15.73283866  1306","TIME_SYSTEM":"UTC","LAUNCH_DATE":"2022-04-21","REV_AT_EPOCH":"130","EPOCH":"2022-05-14T22:00:00.999936","MEAN_MOTION":"15.73283866"},{"MEAN_MOTION_DDOT":"0.0000000000000","COUNTRY_CODE":"US","ELEMENT_SET_NO":"999","APOAPSIS":"352.309","CENTER_NAME":"EARTH","BSTAR":"0.00388890000000","SITE":"AFETR","CLASSIFICATION_TYPE":"U","ARG_OF_PERICENTER":"21.0211","RCS_SIZE":"LARGE","PERIAPSIS":"349.369","RA_OF_ASC_NODE":"259.8198","OBJECT_NAME":"STARLINK-3766","SEMIMAJOR_AXIS":"6728.974","ECCENTRICITY":"0.00021840","GP_ID":"203566092","MEAN_ANOMALY":"163.9982","OBJECT_ID":"2022-041AM","REF_FRAME":"TEME","EPHEMERIS_TYPE":"0","NORAD_CAT_ID":"52296","PERIOD":"91.555","OBJECT_TYPE":"PAYLOAD","MEAN_MOTION_DOT":"0.00574868","DECAY_DATE":null,"FILE":"3445938","INCLINATION":"53.2164","MEAN_MOTION":"15.72821715","EPOCH":"2022-05-14T22:00:00.999936","REV_AT_EPOCH":"130","LAUNCH_DATE":"2022-04-21","TIME_SYSTEM":"UTC","MEAN_ELEMENT_THEORY":"SGP4","TLE_LINE2":"2 52296  53.2164 259.8198 0002184  21.0211 163.9982 15.72821715  1302","TLE_LINE1":"1 52296U 22041AM  22134.91667824  .00574868  00000-0  38889-2 0  9994"},{"TLE_LINE1":"1 52297U 22041AN  22134.91667824 -.00054341  00000-0 -38424-3 0  9992","TIME_SYSTEM":"UTC","TLE_LINE2":"2 52297  53.2149 259.8249 0002538  17.8894 164.2070 15.73256893  1308","MEAN_ELEMENT_THEORY":"SGP4","LAUNCH_DATE":"2022-04-21","REV_AT_EPOCH":"130","MEAN_MOTION":"15.73256893","EPOCH":"2022-05-14T22:00:00.999936","INCLINATION":"53.2149","FILE":"3445938","MEAN_MOTION_DOT":"-0.00054341","OBJECT_TYPE":"PAYLOAD","PERIOD":"91.530","DECAY_DATE":null,"EPHEMERIS_TYPE":"0","NORAD_CAT_ID":"52297","REF_FRAME":"TEME","OBJECT_ID":"2022-041AN","GP_ID":"203566273","MEAN_ANOMALY":"164.2070","OBJECT_NAME":"STARLINK-3758","ECCENTRICITY":"0.00025380","SEMIMAJOR_AXIS":"6727.733","RA_OF_ASC_NODE":"259.8249","PERIAPSIS":"347.890","RCS_SIZE":"LARGE","ARG_OF_PERICENTER":"17.8894","BSTAR":"-0.00038424000000","CLASSIFICATION_TYPE":"U","SITE":"AFETR","ELEMENT_SET_NO":"999","MEAN_MOTION_DDOT":"0.0000000000000","COUNTRY_CODE":"US","CENTER_NAME":"EARTH","APOAPSIS":"351.305"},{"TLE_LINE1":"1 52298U 22041AP  22134.91667824  .00010009  00000-0  75440-4 0  9994","TLE_LINE2":"2 52298  53.2151 259.8172 0002529  18.4793 167.0521 15.73266455  1309","MEAN_ELEMENT_THEORY":"SGP4","TIME_SYSTEM":"UTC","LAUNCH_DATE":"2022-04-21","REV_AT_EPOCH":"130","EPOCH":"2022-05-14T22:00:00.999936","MEAN_MOTION":"15.73266455","FILE":"3445938","INCLINATION":"53.2151","DECAY_DATE":null,"OBJECT_TYPE":"PAYLOAD","PERIOD":"91.529","MEAN_MOTION_DOT":"0.00010009","EPHEMERIS_TYPE":"0","NORAD_CAT_ID":"52298","REF_FRAME":"TEME","OBJECT_ID":"2022-041AP","MEAN_ANOMALY":"167.0521","GP_ID":"203566530","ECCENTRICITY":"0.00025290","SEMIMAJOR_AXIS":"6727.706","OBJECT_NAME":"STARLINK-3760","RA_OF_ASC_NODE":"259.8172","PERIAPSIS":"347.869","RCS_SIZE":"LARGE","ARG_OF_PERICENTER":"18.4793","CLASSIFICATION_TYPE":"U","SITE":"AFETR","BSTAR":"0.00007544000000","CENTER_NAME":"EARTH","APOAPSIS":"351.272","ELEMENT_SET_NO":"999","MEAN_MOTION_DDOT":"0.0000000000000","COUNTRY_CODE":"US"},{"APOAPSIS":"351.249","CENTER_NAME":"EARTH","COUNTRY_CODE":"US","MEAN_MOTION_DDOT":"0.0000000000000","ELEMENT_SET_NO":"999","SITE":"AFETR","CLASSIFICATION_TYPE":"U","BSTAR":"-0.00034586000000","ARG_OF_PERICENTER":"18.1292","RCS_SIZE":"LARGE","PERIAPSIS":"347.741","RA_OF_ASC_NODE":"259.8201","SEMIMAJOR_AXIS":"6727.630","ECCENTRICITY":"0.00026070","OBJECT_NAME":"STARLINK-3759","MEAN_ANOMALY":"166.2291","GP_ID":"203566682","OBJECT_ID":"2022-041AQ","REF_FRAME":"TEME","EPHEMERIS_TYPE":"0","NORAD_CAT_ID":"52299","DECAY_DATE":null,"MEAN_MOTION_DOT":"-0.00049082","OBJECT_TYPE":"PAYLOAD","PERIOD":"91.528","FILE":"3445938","INCLINATION":"53.2152","EPOCH":"2022-05-14T22:00:00.999936","MEAN_MOTION":"15.73293124","REV_AT_EPOCH":"130","LAUNCH_DATE":"2022-04-21","TLE_LINE2":"2 52299  53.2152 259.8201 0002607  18.1292 166.2291 15.73293124  1300","MEAN_ELEMENT_THEORY":"SGP4","TIME_SYSTEM":"UTC","TLE_LINE1":"1 52299U 22041AQ  22134.91667824 -.00049082  00000-0 -34586-3 0  9995"},{"OBJECT_ID":"2022-041AR","MEAN_ANOMALY":"162.4887","GP_ID":"203566437","SEMIMAJOR_AXIS":"6727.647","ECCENTRICITY":"0.00024200","OBJECT_NAME":"STARLINK-3769","RA_OF_ASC_NODE":"259.8146","RCS_SIZE":"LARGE","PERIAPSIS":"347.883","ARG_OF_PERICENTER":"24.2534","SITE":"AFETR","CLASSIFICATION_TYPE":"U","BSTAR":"-0.00024693000000","APOAPSIS":"351.140","CENTER_NAME":"EARTH","MEAN_MOTION_DDOT":"0.0000000000000","COUNTRY_CODE":"US","ELEMENT_SET_NO":"999","TLE_LINE1":"1 52300U 22041AR  22134.91667824 -.00035267  00000-0 -24693-3 0  9996","MEAN_ELEMENT_THEORY":"SGP4","TLE_LINE2":"2 52300  53.2152 259.8146 0002420  24.2534 162.4887 15.73287225  1305","TIME_SYSTEM":"UTC","REV_AT_EPOCH":"130","LAUNCH_DATE":"2022-04-21","EPOCH":"2022-05-14T22:00:00.999936","MEAN_MOTION":"15.73287225","FILE":"3445938","INCLINATION":"53.2152","DECAY_DATE":null,"PERIOD":"91.528","OBJECT_TYPE":"PAYLOAD","MEAN_MOTION_DOT":"-0.00035267","NORAD_CAT_ID":"52300","EPHEMERIS_TYPE":"0","REF_FRAME":"TEME"},{"MEAN_ELEMENT_THEORY":"SGP4","TLE_LINE2":"2 52301  53.2150 259.8210 0002419  19.9896 163.7899 15.73289007  1303","TIME_SYSTEM":"UTC","TLE_LINE1":"1 52301U 22041AS  22134.91667824 -.00051927  00000-0 -36637-3 0  9999","EPOCH":"2022-05-14T22:00:00.999936","MEAN_MOTION":"15.73289007","REV_AT_EPOCH":"130","LAUNCH_DATE":"2022-04-21","DECAY_DATE":null,"MEAN_MOTION_DOT":"-0.00051927","OBJECT_TYPE":"PAYLOAD","PERIOD":"91.528","INCLINATION":"53.2150","FILE":"3445938","REF_FRAME":"TEME","EPHEMERIS_TYPE":"0","NORAD_CAT_ID":"52301","MEAN_ANOMALY":"163.7899","GP_ID":"203566619","OBJECT_ID":"2022-041AS","RA_OF_ASC_NODE":"259.8210","SEMIMAJOR_AXIS":"6727.641","ECCENTRICITY":"0.00024190","OBJECT_NAME":"STARLINK-3768","ARG_OF_PERICENTER":"19.9896","RCS_SIZE":"LARGE","PERIAPSIS":"347.879","APOAPSIS":"351.134","CENTER_NAME":"EARTH","MEAN_MOTION_DDOT":"0.0000000000000","COUNTRY_CODE":"US","ELEMENT_SET_NO":"999","SITE":"AFETR","CLASSIFICATION_TYPE":"U","BSTAR":"-0.00036637000000"},{"OBJECT_NAME":"STARLINK-3564","ECCENTRICITY":"0.00025050","SEMIMAJOR_AXIS":"6727.863","RA_OF_ASC_NODE":"259.8106","OBJECT_ID":"2022-041AT","GP_ID":"203566186","MEAN_ANOMALY":"170.3251","BSTAR":"0.00000443040000","CLASSIFICATION_TYPE":"U","SITE":"AFETR","ELEMENT_SET_NO":"999","COUNTRY_CODE":"US","MEAN_MOTION_DDOT":"0.0000000000000","CENTER_NAME":"EARTH","APOAPSIS":"351.413","PERIAPSIS":"348.042","RCS_SIZE":"LARGE","ARG_OF_PERICENTER":"18.3074","LAUNCH_DATE":"2022-04-21","REV_AT_EPOCH":"130","MEAN_MOTION":"15.73211384","EPOCH":"2022-05-14T22:00:00.999936","TLE_LINE1":"1 52302U 22041AT  22134.91667824  .00000000  00000-0  44304-5 0  9996","TIME_SYSTEM":"UTC","TLE_LINE2":"2 52302  53.2149 259.8106 0002505  18.3074 170.3251 15.73211384  1302","MEAN_ELEMENT_THEORY":"SGP4","NORAD_CAT_ID":"52302","EPHEMERIS_TYPE":"0","REF_FRAME":"TEME","FILE":"3445938","INCLINATION":"53.2149","PERIOD":"91.533","OBJECT_TYPE":"PAYLOAD","MEAN_MOTION_DOT":"0.00000000","DECAY_DATE":null},{"DECAY_DATE":null,"MEAN_MOTION_DOT":"-0.00060919","OBJECT_TYPE":"PAYLOAD","PERIOD":"91.528","INCLINATION":"53.2148","FILE":"3445938","REF_FRAME":"TEME","NORAD_CAT_ID":"52303","EPHEMERIS_TYPE":"0","TLE_LINE2":"2 52303  53.2148 259.8160 0002677  18.1672 168.0442 15.73287902  1309","MEAN_ELEMENT_THEORY":"SGP4","TIME_SYSTEM":"UTC","TLE_LINE1":"1 52303U 22041AU  22134.91667824 -.00060919  00000-0 -43104-3 0  9999","EPOCH":"2022-05-14T22:00:00.999936","MEAN_MOTION":"15.73287902","REV_AT_EPOCH":"130","LAUNCH_DATE":"2022-04-21","ARG_OF_PERICENTER":"18.1672","RCS_SIZE":"LARGE","PERIAPSIS":"347.709","APOAPSIS":"351.311","CENTER_NAME":"EARTH","COUNTRY_CODE":"US","MEAN_MOTION_DDOT":"0.0000000000000","ELEMENT_SET_NO":"999","SITE":"AFETR","CLASSIFICATION_TYPE":"U","BSTAR":"-0.00043104000000","MEAN_ANOMALY":"168.0442","GP_ID":"203566714","OBJECT_ID":"2022-041AU","RA_OF_ASC_NODE":"259.8160","SEMIMAJOR_AXIS":"6727.645","ECCENTRICITY":"0.00026770","OBJECT_NAME":"STARLINK-3742"}];
